{
  "type": "FeatureCollection",
  "features": [
    {
      "type": "Feature",
      "properties": {
        "norad_id": 47053,
        "name": "COSMOS 2251 DEB",
        "group": "cosmos-2251-debris",
        "lat": 26.83136527339863,
        "lon": 45.640827541709164,
        "alt_km": 1108.2342537312206,
        "timestamp": "2025-12-25T03:55:56.765870+00:00",
        "meta_object_name": "COSMOS 2251 DEB",
        "meta_object_id": "1993-036BXH",
        "meta_epoch": "2025-12-21T23:22:14.227392",
        "meta_mean_motion": 13.59701409,
        "meta_eccentricity": 0.03775476,
        "meta_inclination": 74.0593,
        "meta_ra_of_asc_node": 239.1144,
        "meta_arg_of_pericenter": 50.5889,
        "meta_mean_anomaly": 327.7768,
        "meta_ephemeris_type": 0,
        "meta_classification_type": "U",
        "meta_norad_cat_id": 47053,
        "meta_element_set_no": 999,
        "meta_rev_at_epoch": 29014,
        "meta_bstar": 0.0013674764,
        "meta_mean_motion_dot": 1.606e-05,
        "meta_mean_motion_ddot": 0,
        "tle_line1": "1 47053U 93036BXH 25355.97377578  .00001606  00000+0  13675-2 0  9999",
        "tle_line2": "2 47053  74.0593 239.1144 0377547  50.5889 327.7768 13.59701409290146"
      },
      "geometry": {
        "type": "Point",
        "coordinates": [
          45.640827541709164,
          26.83136527339863
        ]
      }
    },
    {
      "type": "Feature",
      "properties": {
        "norad_id": 47059,
        "name": "COSMOS 2251 DEB",
        "group": "cosmos-2251-debris",
        "lat": 26.849470873550324,
        "lon": -142.07255458223852,
        "alt_km": 514.6262774055513,
        "timestamp": "2025-12-25T03:55:56.765881+00:00",
        "meta_object_name": "COSMOS 2251 DEB",
        "meta_object_id": "1993-036BXP",
        "meta_epoch": "2025-12-16T01:10:48.054720",
        "meta_mean_motion": 15.13144812,
        "meta_eccentricity": 0.00128667,
        "meta_inclination": 73.98,
        "meta_ra_of_asc_node": 228.534,
        "meta_arg_of_pericenter": 42.2566,
        "meta_mean_anomaly": 26.5019,
        "meta_ephemeris_type": 0,
        "meta_classification_type": "U",
        "meta_norad_cat_id": 47059,
        "meta_element_set_no": 999,
        "meta_rev_at_epoch": 8355,
        "meta_bstar": 0.0018804977,
        "meta_mean_motion_dot": 0.00033522,
        "meta_mean_motion_ddot": 0,
        "tle_line1": "1 47059U 93036BXP 25350.04916730  .00033522  00000+0  18805-2 0  9999",
        "tle_line2": "2 47059  73.9800 228.5340 0012866  42.2566  26.5019 15.13144812 83550"
      },
      "geometry": {
        "type": "Point",
        "coordinates": [
          -142.07255458223852,
          26.849470873550324
        ]
      }
    },
    {
      "type": "Feature",
      "properties": {
        "norad_id": 47062,
        "name": "COSMOS 2251 DEB",
        "group": "cosmos-2251-debris",
        "lat": -49.047471752701696,
        "lon": -103.11696104661435,
        "alt_km": 844.1413158653604,
        "timestamp": "2025-12-25T03:55:56.765891+00:00",
        "meta_object_name": "COSMOS 2251 DEB",
        "meta_object_id": "1993-036BXS",
        "meta_epoch": "2025-12-23T10:39:12.732768",
        "meta_mean_motion": 13.71972492,
        "meta_eccentricity": 0.03225336,
        "meta_inclination": 74.0838,
        "meta_ra_of_asc_node": 60.5229,
        "meta_arg_of_pericenter": 184.1282,
        "meta_mean_anomaly": 192.9276,
        "meta_ephemeris_type": 0,
        "meta_classification_type": "U",
        "meta_norad_cat_id": 47062,
        "meta_element_set_no": 999,
        "meta_rev_at_epoch": 55749,
        "meta_bstar": 0.00088691048,
        "meta_mean_motion_dot": 1.145e-05,
        "meta_mean_motion_ddot": 0,
        "tle_line1": "1 47062U 93036BXS 25357.44389737  .00001145  00000+0  88691-3 0  9992",
        "tle_line2": "2 47062  74.0838  60.5229 0322533 184.1282 192.9276 13.71972492557490"
      },
      "geometry": {
        "type": "Point",
        "coordinates": [
          -103.11696104661435,
          -49.047471752701696
        ]
      }
    },
    {
      "type": "Feature",
      "properties": {
        "norad_id": 47068,
        "name": "COSMOS 2251 DEB",
        "group": "cosmos-2251-debris",
        "lat": 17.049985852968298,
        "lon": -174.95601407750658,
        "alt_km": 720.0919512865639,
        "timestamp": "2025-12-25T03:55:56.765901+00:00",
        "meta_object_name": "COSMOS 2251 DEB",
        "meta_object_id": "1993-036BXY",
        "meta_epoch": "2025-12-23T18:48:26.675712",
        "meta_mean_motion": 14.5321924,
        "meta_eccentricity": 0.00182523,
        "meta_inclination": 74.0229,
        "meta_ra_of_asc_node": 182.6094,
        "meta_arg_of_pericenter": 268.9678,
        "meta_mean_anomaly": 90.9393,
        "meta_ephemeris_type": 0,
        "meta_classification_type": "U",
        "meta_norad_cat_id": 47068,
        "meta_element_set_no": 999,
        "meta_rev_at_epoch": 61917,
        "meta_bstar": 0.00081306022,
        "meta_mean_motion_dot": 3.351e-05,
        "meta_mean_motion_ddot": 0,
        "tle_line1": "1 47068U 93036BXY 25357.78364208  .00003351  00000+0  81306-3 0  9998",
        "tle_line2": "2 47068  74.0229 182.6094 0018252 268.9678  90.9393 14.53219240619173"
      },
      "geometry": {
        "type": "Point",
        "coordinates": [
          -174.95601407750658,
          17.049985852968298
        ]
      }
    },
    {
      "type": "Feature",
      "properties": {
        "norad_id": 47073,
        "name": "COSMOS 2251 DEB",
        "group": "cosmos-2251-debris",
        "lat": 4.457203287616504,
        "lon": -1.047095256684896,
        "alt_km": 789.1854262042525,
        "timestamp": "2025-12-25T03:55:56.765912+00:00",
        "meta_object_name": "COSMOS 2251 DEB",
        "meta_object_id": "1993-036BYD",
        "meta_epoch": "2025-12-20T05:09:22.277088",
        "meta_mean_motion": 14.04735867,
        "meta_eccentricity": 0.0161533,
        "meta_inclination": 74.0811,
        "meta_ra_of_asc_node": 188.8357,
        "meta_arg_of_pericenter": 225.3344,
        "meta_mean_anomaly": 133.4535,
        "meta_ephemeris_type": 0,
        "meta_classification_type": "U",
        "meta_norad_cat_id": 47073,
        "meta_element_set_no": 999,
        "meta_rev_at_epoch": 60466,
        "meta_bstar": 0.00045488,
        "meta_mean_motion_dot": 7.94e-06,
        "meta_mean_motion_ddot": 0,
        "tle_line1": "1 47073U 93036BYD 25354.21484117  .00000794  00000+0  45488-3 0  9990",
        "tle_line2": "2 47073  74.0811 188.8357 0161533 225.3344 133.4535 14.04735867604667"
      },
      "geometry": {
        "type": "Point",
        "coordinates": [
          -1.047095256684896,
          4.457203287616504
        ]
      }
    },
    {
      "type": "Feature",
      "properties": {
        "norad_id": 47074,
        "name": "COSMOS 2251 DEB",
        "group": "cosmos-2251-debris",
        "lat": -74.08286392536273,
        "lon": -164.66379766923114,
        "alt_km": 701.4056162936586,
        "timestamp": "2025-12-25T03:55:56.765952+00:00",
        "meta_object_name": "COSMOS 2251 DEB",
        "meta_object_id": "1993-036BYE",
        "meta_epoch": "2025-12-24T01:39:06.472224",
        "meta_mean_motion": 14.35696552,
        "meta_eccentricity": 0.01448361,
        "meta_inclination": 74.0936,
        "meta_ra_of_asc_node": 287.9879,
        "meta_arg_of_pericenter": 313.5556,
        "meta_mean_anomaly": 59.972,
        "meta_ephemeris_type": 0,
        "meta_classification_type": "U",
        "meta_norad_cat_id": 47074,
        "meta_element_set_no": 999,
        "meta_rev_at_epoch": 2845,
        "meta_bstar": 0.0011703787,
        "meta_mean_motion_dot": 3.781e-05,
        "meta_mean_motion_ddot": 0,
        "tle_line1": "1 47074U 93036BYE 25358.06882491  .00003781  00000+0  11704-2 0  9997",
        "tle_line2": "2 47074  74.0936 287.9879 0144836 313.5556  59.9720 14.35696552 28454"
      },
      "geometry": {
        "type": "Point",
        "coordinates": [
          -164.66379766923114,
          -74.08286392536273
        ]
      }
    },
    {
      "type": "Feature",
      "properties": {
        "norad_id": 47116,
        "name": "COSMOS 2251 DEB",
        "group": "cosmos-2251-debris",
        "lat": 43.03096279165018,
        "lon": -128.97581588057014,
        "alt_km": 568.8082179970797,
        "timestamp": "2025-12-25T03:55:56.765964+00:00",
        "meta_object_name": "COSMOS 2251 DEB",
        "meta_object_id": "1993-036BYJ",
        "meta_epoch": "2025-12-22T09:13:54.172992",
        "meta_mean_motion": 14.98590739,
        "meta_eccentricity": 0.00212329,
        "meta_inclination": 74.0216,
        "meta_ra_of_asc_node": 221.1484,
        "meta_arg_of_pericenter": 314.2258,
        "meta_mean_anomaly": 222.9412,
        "meta_ephemeris_type": 0,
        "meta_classification_type": "U",
        "meta_norad_cat_id": 47116,
        "meta_element_set_no": 999,
        "meta_rev_at_epoch": 59655,
        "meta_bstar": 0.0021038728,
        "meta_mean_motion_dot": 0.000254,
        "meta_mean_motion_ddot": 0,
        "tle_line1": "1 47116U 93036BYJ 25356.38465478  .00025400  00000+0  21039-2 0  9993",
        "tle_line2": "2 47116  74.0216 221.1484 0021232 314.2258 222.9412 14.98590739596555"
      },
      "geometry": {
        "type": "Point",
        "coordinates": [
          -128.97581588057014,
          43.03096279165018
        ]
      }
    }
  ]
}